{"spkid": "20439313", "covariance": {"epoch": "2457567.5", "labels": ["e", "q", "tp", "node", "peri", "i"], "elements": [{"label": "e", "sigma": 2.59305715853918e-08, "name": "e", "units": null, "title": "eccentricity", "value": ".5438798316454163"}, {"label": "q", "sigma": 5.55800517629668e-08, "name": "q", "value": ".9617810528405523", "title": "perihelion distance", "units": "au"}, {"sigma": 1.50273091334337e-05, "name": "tp", "units": "TDB", "value": "2457204.256880845237", "title": "time of perihelion passage", "label": "tp"}, {"label": "node", "value": "110.4611735702478", "title": "longitude of the ascending node", "units": "deg", "name": "om", "sigma": 4.30539471586886e-05}, {"units": "deg", "title": "argument of perihelion", "value": "186.4518171338339", "name": "w", "sigma": 4.25114759580635e-05, "label": "peri"}, {"title": "inclination", "value": "9.935540557671509", "units": "deg", "sigma": 4.80348495989177e-06, "name": "i", "label": "i"}], "data": [["6.723945427451283E-16", "-1.432482745912545E-15", "-1.210328267317E-14", "-5.719717555681488E-14", "3.361243041108249E-14", "5.131871873064007E-15"], ["-1.432482745912545E-15", "3.08914215397407E-15", "-2.094020753795514E-14", "1.522986399577927E-13", "-1.058124172413391E-13", "-9.31967763209744E-15"], ["-1.210328267317E-14", "-2.094020753795514E-14", "2.258200197917786E-10", "2.951172744404219E-11", "6.786607284707155E-11", "-7.088115129084087E-12"], ["-5.719717555681488E-14", "1.522986399577927E-13", "2.951172744404219E-11", "1.853642365943149E-9", "-1.796408984266608E-9", "-7.790201521221641E-11"], ["3.361243041108249E-14", "-1.058124172413391E-13", "6.786607284707155E-11", "-1.796408984266608E-9", "1.807225588133011E-9", "7.464704422563836E-11"], ["5.131871873064007E-15", "-9.31967763209744E-15", "-7.088115129084087E-12", "-7.790201521221641E-11", "7.464704422563836E-11", "2.307346775990644E-11"]]}, "elements": [{"name": "e", "sigma": "2.5713E-8", "units": null, "title": "eccentricity", "value": ".5437928615577549", "label": "e"}, {"label": "a", "sigma": "1.4034E-8", "name": "a", "units": "au", "title": "semi-major axis", "value": "2.112298051804107"}, {"units": "au", "value": ".9636454497506811", "title": "perihelion distance", "sigma": "5.5879E-8", "name": "q", "label": "q"}, {"sigma": "4.785E-6", "name": "i", "value": "9.929435805464674", "title": "inclination; angle with respect to x-y ecliptic plane", "units": "deg", "label": "i"}, {"sigma": "4.3018E-5", "name": "om", "title": "longitude of the ascending node", "value": "110.3821483934227", "units": "deg", "label": "node"}, {"units": "deg", "value": "186.6660674786337", "title": "argument of perihelion", "sigma": "4.2539E-5", "name": "w", "label": "peri"}, {"name": "ma", "sigma": "1.0965E-5", "units": "deg", "title": "mean anomaly", "value": "204.933641229327", "label": "M"}, {"label": "tp", "sigma": "3.8544E-5", "name": "tp", "units": "TDB", "title": "time of perihelion passage", "value": "2461683.499090363899"}, {"value": "1121.324276325811", "title": "sidereal orbital period", "units": "d", "sigma": "1.1175E-5", "name": "per", "label": "period"}, {"value": ".3210489664770253", "title": "mean motion", "units": "deg/d", "sigma": "3.1996E-9", "name": "n", "label": "n"}, {"name": "ad", "sigma": "2.1666E-8", "units": "au", "value": "3.260950653857533", "title": "aphelion distance", "label": "Q"}], "epoch": "2461200.5"}